$GPRMC,130000.00,A,3954.6000,N,11624.0000,E,4.00,45.00,180326,,*07
$GPGGA,130000.00,3954.6000,N,11624.0000,E,1,09,1.0,52.0,M,,M,,*42
$GPRMC,130010.00,A,3954.6108,N,11624.0108,E,4.30,45.00,180326,,*05
$GPGGA,130010.00,3954.6108,N,11624.0108,E,1,09,1.0,52.2,M,,M,,*41
$GPRMC,130011.00,A,3955.2300,N,11625.8000,E,90.00,60.00,180326,,*32
$GPGGA,130011.00,3955.2300,N,11625.8000,E,1,09,1.0,54.0,M,,M,,*4B
$GPRMC,130020.00,A,3954.6192,N,11624.0216,E,4.20,45.00,180326,,*08
$GPGGA,130020.00,3954.6192,N,11624.0216,E,1,09,1.0,52.4,M,,M,,*4B
$GPRMC,130019.00,A,3954.6270,N,11624.0324,E,4.10,45.00,180326,,*0E
$GPGGA,130019.00,3954.6270,N,11624.0324,E,1,09,1.0,52.5,M,,M,,*4F
