$GPRMC,120000.00,A,3954.0000,N,11623.4000,E,5.00,90.00,180326,,*0A
$GPGGA,120000.00,3954.0000,N,11623.4000,E,1,10,0.9,50.0,M,,M,,*44
$GPRMC,120010.00,A,3954.0090,N,11623.4150,E,5.40,91.00,180326,,*03
$GPGGA,120010.00,3954.0090,N,11623.4150,E,1,10,0.9,50.3,M,,M,,*4B
$GPRMC,120020.00,A,3954.0192,N,11623.4312,E,5.80,92.00,180326,,*08
$GPGGA,120020.00,3954.0192,N,11623.4312,E,1,10,0.8,50.5,M,,M,,*48
$GPRMC,120030.00,A,3954.0312,N,11623.4516,E,6.10,92.00,180326,,*0B
$GPGGA,120030.00,3954.0312,N,11623.4516,E,1,10,0.8,50.7,M,,M,,*43
$GPRMC,120040.00,A,3954.0456,N,11623.4738,E,6.30,93.00,180326,,*06
$GPGGA,120040.00,3954.0456,N,11623.4738,E,1,10,0.8,50.9,M,,M,,*43
