$GPRMC,140000.00,A,3954.3000,N,11623.7000,E,3.80,180.00,180326,,*32
$GPGGA,140000.00,3954.3000,N,11623.7000,E,1,08,1.1,48.0,M,,M,,*4B
$GPRMC,140010.00,A,3954.3132,N,11623.7156,E,3.90,181.00,180326,,*31
$GPGGA,140010.00,3954.3132,N,11623.7156,E,1,08,1.1,48.1,M,,M,,*49
$GPRMC,140020.00,A,3954.2964,N,11623.7048,E,3.70,182.00,180326,,*3B
$GPGGA,140020.00,3954.2964,N,11623.7048,E,1,08,1.2,48.2,M,,M,,*4E
$GPRMC,140030.00,A,3954.3216,N,11623.7324,E,4.00,182.00,180326,,*3C
$GPGGA,140030.00,3954.3216,N,11623.7324,E,1,08,1.2,48.3,M,,M,,*48
$GPRMC,140040.00,A,3954.3072,N,11623.7156,E,3.80,183.00,180326,,*32
$GPGGA,140040.00,3954.3072,N,11623.7156,E,1,08,1.1,48.4,M,,M,,*4C
$GPRMC,140050.00,A,3954.3348,N,11623.7492,E,4.10,183.00,180326,,*3A
$GPGGA,140050.00,3954.3348,N,11623.7492,E,1,08,1.1,48.5,M,,M,,*4B
